ONEWEB-0415             
1 51624U 22012C   24191.48110509  .00000552  00000+0  15438-2 0  9994
2 51624  87.8943 177.0121 0001688  85.1605 274.9715 13.10375355116608
ONEWEB-0416             
1 51625U 22012D   24191.49272038  .00000696  00000+0  19565-2 0  9996
2 51625  87.8947 177.0060 0002071  87.4367 272.6998 13.10374020116642
ONEWEB-0422             
1 51626U 22012E   24191.34989560  .00000035  00000+0  56925-4 0  9996
2 51626  87.9182 146.7785 0002612  68.0899 292.0510 13.17649580120596
ONEWEB-0423             
1 51627U 22012F   24191.57124447  .00000031  00000+0  46844-4 0  9992
2 51627  87.9183 146.7359 0002219  82.0642 278.0742 13.17651608120517
ONEWEB-0425             
1 51628U 22012G   24191.50268728  .00000370  00000+0  10234-2 0  9995
2 51628  87.8941 176.9868 0002335  94.2940 265.8454 13.10370317116645
ONEWEB-0428             
1 51629U 22012H   24191.48276826  .00000564  00000+0  15797-2 0  9995
2 51629  87.8947 177.0064 0001969  77.1624 282.9723 13.10374871116607
ONEWEB-0431             
1 51630U 22012J   24191.45272898 -.00000588  00000+0 -17198-2 0  9994
2 51630  87.8938 177.0079 0001628  66.5627 293.5671 13.10373707116654
ONEWEB-0434             
1 51631U 22012K   24191.50600171  .00000155  00000+0  40737-3 0  9994
2 51631  87.8940 177.0137 0002178  83.4183 276.7192 13.10369849116641
